{
  "type": "FeatureCollection",
  "features": [
    {
      "type": "Feature",
      "properties": {
        "norad_id": 66598,
        "name": "STARLINK-35981",
        "group": "last-30-days",
        "lat": -0.9518258681442193,
        "lon": -166.3988884636834,
        "alt_km": 414.9938453689665,
        "timestamp": "2025-12-12T09:49:07.481698+00:00",
        "meta_object_name": "STARLINK-35981",
        "meta_object_id": "2025-270L",
        "meta_epoch": "2025-12-12T04:00:01.998720",
        "meta_mean_motion": 15.5048266,
        "meta_eccentricity": 0.0001684,
        "meta_inclination": 42.9998,
        "meta_ra_of_asc_node": 196.0409,
        "meta_arg_of_pericenter": 269.542,
        "meta_mean_anomaly": 174.3325,
        "meta_ephemeris_type": 0,
        "meta_classification_type": "U",
        "meta_norad_cat_id": 66598,
        "meta_element_set_no": 999,
        "meta_rev_at_epoch": 414,
        "meta_bstar": 0.00196,
        "meta_mean_motion_dot": 0.00115964,
        "meta_mean_motion_ddot": 0,
        "tle_line1": "1 66598U 25270L   25346.16668980  .00115964  00000+0  19600-2 0  9997",
        "tle_line2": "2 66598  42.9998 196.0409 0001684 269.5420 174.3325 15.50482660  4144"
      },
      "geometry": {
        "type": "Point",
        "coordinates": [
          -166.3988884636834,
          -0.9518258681442193
        ]
      }
    },
    {
      "type": "Feature",
      "properties": {
        "norad_id": 66599,
        "name": "STARLINK-35930",
        "group": "last-30-days",
        "lat": 0.29281977700606593,
        "lon": -165.06709239178414,
        "alt_km": 414.4550627444787,
        "timestamp": "2025-12-12T09:49:07.481709+00:00",
        "meta_object_name": "STARLINK-35930",
        "meta_object_id": "2025-270M",
        "meta_epoch": "2025-12-12T04:00:01.998720",
        "meta_mean_motion": 15.50566991,
        "meta_eccentricity": 5.04e-05,
        "meta_inclination": 42.9997,
        "meta_ra_of_asc_node": 196.037,
        "meta_arg_of_pericenter": 329.8662,
        "meta_mean_anomaly": 115.7931,
        "meta_ephemeris_type": 0,
        "meta_classification_type": "U",
        "meta_norad_cat_id": 66599,
        "meta_element_set_no": 999,
        "meta_rev_at_epoch": 430,
        "meta_bstar": 0.00060909,
        "meta_mean_motion_dot": 0.00035537,
        "meta_mean_motion_ddot": 0,
        "tle_line1": "1 66599U 25270M   25346.16668980  .00035537  00000+0  60909-3 0  9994",
        "tle_line2": "2 66599  42.9997 196.0370 0000504 329.8662 115.7931 15.50566991  4309"
      },
      "geometry": {
        "type": "Point",
        "coordinates": [
          -165.06709239178414,
          0.29281977700606593
        ]
      }
    },
    {
      "type": "Feature",
      "properties": {
        "norad_id": 66600,
        "name": "STARLINK-35980",
        "group": "last-30-days",
        "lat": 1.643783630670789,
        "lon": -163.62160375343606,
        "alt_km": 414.46626125073817,
        "timestamp": "2025-12-12T09:49:07.481721+00:00",
        "meta_object_name": "STARLINK-35980",
        "meta_object_id": "2025-270N",
        "meta_epoch": "2025-12-12T04:00:01.998720",
        "meta_mean_motion": 15.50542336,
        "meta_eccentricity": 0.0002384,
        "meta_inclination": 42.9998,
        "meta_ra_of_asc_node": 196.0319,
        "meta_arg_of_pericenter": 276.9291,
        "meta_mean_anomaly": 170.7081,
        "meta_ephemeris_type": 0,
        "meta_classification_type": "U",
        "meta_norad_cat_id": 66600,
        "meta_element_set_no": 999,
        "meta_rev_at_epoch": 420,
        "meta_bstar": 0.00070056,
        "meta_mean_motion_dot": 0.0004092,
        "meta_mean_motion_ddot": 0,
        "tle_line1": "1 66600U 25270N   25346.16668980  .00040920  00000+0  70056-3 0  9993",
        "tle_line2": "2 66600  42.9998 196.0319 0002384 276.9291 170.7081 15.50542336  4207"
      },
      "geometry": {
        "type": "Point",
        "coordinates": [
          -163.62160375343606,
          1.643783630670789
        ]
      }
    },
    {
      "type": "Feature",
      "properties": {
        "norad_id": 66601,
        "name": "STARLINK-35978",
        "group": "last-30-days",
        "lat": 2.950583871955558,
        "lon": -162.22045129051796,
        "alt_km": 414.2349813484925,
        "timestamp": "2025-12-12T09:49:07.481731+00:00",
        "meta_object_name": "STARLINK-35978",
        "meta_object_id": "2025-270P",
        "meta_epoch": "2025-12-12T04:00:01.998720",
        "meta_mean_motion": 15.5053795,
        "meta_eccentricity": 0.0001324,
        "meta_inclination": 42.9997,
        "meta_ra_of_asc_node": 196.027,
        "meta_arg_of_pericenter": 286.7778,
        "meta_mean_anomaly": 162.7908,
        "meta_ephemeris_type": 0,
        "meta_classification_type": "U",
        "meta_norad_cat_id": 66601,
        "meta_element_set_no": 999,
        "meta_rev_at_epoch": 414,
        "meta_bstar": 0.0009599,
        "meta_mean_motion_dot": 0.00056294,
        "meta_mean_motion_ddot": 0,
        "tle_line1": "1 66601U 25270P   25346.16668980  .00056294  00000+0  95990-3 0  9999",
        "tle_line2": "2 66601  42.9997 196.0270 0001324 286.7778 162.7908 15.50537950  4143"
      },
      "geometry": {
        "type": "Point",
        "coordinates": [
          -162.22045129051796,
          2.950583871955558
        ]
      }
    },
    {
      "type": "Feature",
      "properties": {
        "norad_id": 66602,
        "name": "STARLINK-36050",
        "group": "last-30-days",
        "lat": -0.12828036776247964,
        "lon": -165.51798664060712,
        "alt_km": 426.64695117077554,
        "timestamp": "2025-12-12T09:49:07.481756+00:00",
        "meta_object_name": "STARLINK-36050",
        "meta_object_id": "2025-270Q",
        "meta_epoch": "2025-12-12T04:00:01.998720",
        "meta_mean_motion": 15.47661129,
        "meta_eccentricity": 0.0001651,
        "meta_inclination": 42.9997,
        "meta_ra_of_asc_node": 196.0306,
        "meta_arg_of_pericenter": 273.0406,
        "meta_mean_anomaly": 175.0162,
        "meta_ephemeris_type": 0,
        "meta_classification_type": "U",
        "meta_norad_cat_id": 66602,
        "meta_element_set_no": 999,
        "meta_rev_at_epoch": 420,
        "meta_bstar": -0.043755,
        "meta_mean_motion_dot": -0.02059839,
        "meta_mean_motion_ddot": 0,
        "tle_line1": "1 66602U 25270Q   25346.16668980 -.02059839  00000+0 -43755-1 0  9992",
        "tle_line2": "2 66602  42.9997 196.0306 0001651 273.0406 175.0162 15.47661129  4202"
      },
      "geometry": {
        "type": "Point",
        "coordinates": [
          -165.51798664060712,
          -0.12828036776247964
        ]
      }
    },
    {
      "type": "Feature",
      "properties": {
        "norad_id": 66603,
        "name": "STARLINK-36048",
        "group": "last-30-days",
        "lat": 5.561924696887171,
        "lon": -159.40214726341205,
        "alt_km": 414.39848431165956,
        "timestamp": "2025-12-12T09:49:07.481768+00:00",
        "meta_object_name": "STARLINK-36048",
        "meta_object_id": "2025-270R",
        "meta_epoch": "2025-12-12T04:00:01.998720",
        "meta_mean_motion": 15.50480945,
        "meta_eccentricity": 0.0001629,
        "meta_inclination": 42.9997,
        "meta_ra_of_asc_node": 196.0175,
        "meta_arg_of_pericenter": 265.6249,
        "meta_mean_anomaly": 187.8225,
        "meta_ephemeris_type": 0,
        "meta_classification_type": "U",
        "meta_norad_cat_id": 66603,
        "meta_element_set_no": 999,
        "meta_rev_at_epoch": 420,
        "meta_bstar": 0.0017391,
        "meta_mean_motion_dot": 0.0010267,
        "meta_mean_motion_ddot": 0,
        "tle_line1": "1 66603U 25270R   25346.16668980  .00102670  00000+0  17391-2 0  9999",
        "tle_line2": "2 66603  42.9997 196.0175 0001629 265.6249 187.8225 15.50480945  4204"
      },
      "geometry": {
        "type": "Point",
        "coordinates": [
          -159.40214726341205,
          5.561924696887171
        ]
      }
    },
    {
      "type": "Feature",
      "properties": {
        "norad_id": 66604,
        "name": "STARLINK-35977",
        "group": "last-30-days",
        "lat": 6.88413016084298,
        "lon": -157.9618077627538,
        "alt_km": 414.0963482064735,
        "timestamp": "2025-12-12T09:49:07.481779+00:00",
        "meta_object_name": "STARLINK-35977",
        "meta_object_id": "2025-270S",
        "meta_epoch": "2025-12-12T04:00:01.998720",
        "meta_mean_motion": 15.5047907,
        "meta_eccentricity": 0.000144,
        "meta_inclination": 42.9997,
        "meta_ra_of_asc_node": 196.012,
        "meta_arg_of_pericenter": 273.5072,
        "meta_mean_anomaly": 181.8965,
        "meta_ephemeris_type": 0,
        "meta_classification_type": "U",
        "meta_norad_cat_id": 66604,
        "meta_element_set_no": 999,
        "meta_rev_at_epoch": 430,
        "meta_bstar": 0.0016988,
        "meta_mean_motion_dot": 0.00100246,
        "meta_mean_motion_ddot": 0,
        "tle_line1": "1 66604U 25270S   25346.16668980  .00100246  00000+0  16988-2 0  9998",
        "tle_line2": "2 66604  42.9997 196.0120 0001440 273.5072 181.8965 15.50479070  4301"
      },
      "geometry": {
        "type": "Point",
        "coordinates": [
          -157.9618077627538,
          6.88413016084298
        ]
      }
    }
  ]
}